FLOCK 4G-29             
1 62642U 25009AK  26068.81464037  .00011147  00000+0  41831-3 0  9994
2 62642  97.4058 151.3683 0001366 288.0502  72.0588 15.27382318 63721
STARLINK-35897          
1 66501U 25263S   26068.20048189  .00036602  00000+0  13320-2 0  9997
2 66501  42.9993 353.5030 0001660 284.9559  75.1109 15.27604850 18820
